BEIDOU-2 IGSO-1         
1 36828U 10036A   26132.68902604 -.00000041  00000+0  00000+0 0  9990
2 36828  54.2951 163.2807 0058855 224.5644 197.8413  1.00282752 57743
BEIDOU-2 G4             
1 37210U 10057A   26132.63942725 -.00000098  00000+0  00000+0 0  9994
2 37210   3.5584  69.1415 0005527 211.1821 340.2622  1.00272777 56936
BEIDOU-2 IGSO-2         
1 37256U 10068A   26131.68069234 -.00000217  00000+0  00000+0 0  9998
2 37256  47.6185 272.2854 0053911 212.0964  96.0853  1.00295576 56422
BEIDOU-2 IGSO-3         
1 37384U 11013A   26131.75395624 -.00000196  00000+0  00000+0 0  9990
2 37384  62.3600  40.4988 0034014 186.6429  22.0878  1.00277207 55299
BEIDOU-2 IGSO-4         
1 37763U 11038A   26132.55512303  .00000071  00000+0  00000+0 0  9993
2 37763  54.5847 165.9879 0158048 233.0606 122.6137  1.00291444 54288
BEIDOU-2 IGSO-5         
1 37948U 11073A   26132.85927854 -.00000169  00000+0  00000+0 0  9990
2 37948  47.7459 271.9821 0111747 220.6492 139.9952  1.00256739 52788
BEIDOU-2 G5             
1 38091U 12008A   26132.97584303  .00000072  00000+0  00000+0 0  9992
2 38091   3.4857  69.8949 0011087 271.7769 299.0464  1.00271655 52010
BEIDOU-2 M3             
1 38250U 12018A   26132.21251275 -.00000038  00000+0  00000+0 0  9999
2 38250  55.7895 306.0876 0019772 276.8668  82.9033  1.86230132 95272
BEIDOU-2 M4             
1 38251U 12018B   26128.92300840 -.00000036  00000+0  00000+0 0  9994
2 38251  55.6931 305.4151 0010883 282.3733  77.4996  1.86229854 95211
BEIDOU-2 G6             
1 38953U 12059A   26132.90958294 -.00000161  00000+0  00000+0 0  9992
2 38953   4.3318  73.8879 0010611 320.7292 247.5861  1.00272322 49550
BEIDOU-3S IGSO-1S       
1 40549U 15019A   26132.91183628 -.00000173  00000+0  00000+0 0  9990
2 40549  49.2640 295.8857 0037671 190.2356 166.9353  1.00257926 40710
BEIDOU-3S M2S           
1 40748U 15037A   26131.27381031 -.00000037  00000+0  00000+0 0  9996
2 40748  54.9054 303.3168 0007465 268.0236  91.8843  1.86232381 73439
BEIDOU-3S M1S           
1 40749U 15037B   26132.02261529 -.00000039  00000+0  00000+0 0  9992
2 40749  54.9005 303.2786 0004165  55.6265 304.4052  1.86254900 73455
BEIDOU-3S IGSO-2S       
1 40938U 15053A   26131.83149812 -.00000165  00000+0  00000+0 0  9998
2 40938  49.2811 259.2153 0064022 190.8147 175.4917  1.00268034 38999
BEIDOU-2 IGSO-6         
1 41434U 16021A   26132.69800534 -.00000168  00000+0  00000+0 0  9999
2 41434  60.1782  38.3945 0057377 232.3648 305.6209  1.00265576 37121
BEIDOU-2 G7             
1 41586U 16037A   26132.84352990 -.00000340  00000+0  00000+0 0  9991
2 41586   1.6321  68.9771 0007657 358.4043 217.4855  1.00270333  6534
BEIDOU-3 M1             
1 43001U 17069A   26132.15694789 -.00000027  00000+0  00000+0 0  9992
2 43001  56.6617  64.2720 0011649 320.2115  39.6888  1.86231352 57934
BEIDOU-3 M2             
1 43002U 17069B   26131.02189088 -.00000022  00000+0  00000+0 0  9994
2 43002  56.6651  64.3454 0009686  17.2758 342.7452  1.86231163 57904
BEIDOU-3 M7             
1 43107U 18003A   26132.91114964 -.00000044  00000+0  00000+0 0  9993
2 43107  54.3608 303.5450 0005219  84.8802 275.1695  1.86228307 56698
BEIDOU-3 M8             
1 43108U 18003B   26132.31952032 -.00000041  00000+0  00000+0 0  9991
2 43108  54.3542 303.5475 0002169 278.1299  81.8371  1.86231243 56698
BEIDOU-3 M4             
1 43207U 18018A   26132.22522381 -.00000027  00000+0  00000+0 0  9991
2 43207  56.6208  64.3349 0007758   6.5048 353.4905  1.86231343 56072
BEIDOU-3 M3             
1 43208U 18018B   26131.21777272 -.00000022  00000+0  00000+0 0  9996
2 43208  56.6194  64.3718 0009642 332.4369  27.4998  1.86231284 56050
BEIDOU-3 M9             
1 43245U 18029A   26132.50933655 -.00000042  00000+0  00000+0 0  9993
2 43245  54.2280 301.1966 0000809 100.6127 259.3848  1.86228370 55232
BEIDOU-3 M10            
1 43246U 18029B   26132.44387964 -.00000042  00000+0  00000+0 0  9993
2 43246  54.2255 301.2253 0004593  36.7475 323.2726  1.86229404 55217
BEIDOU-2 IGSO-7         
1 43539U 18057A   26130.51871762 -.00000011  00000+0  00000+0 0  9995
2 43539  55.1875 163.3876 0104003 237.7354 126.1724  1.00262765 28754
BEIDOU-3 M5             
1 43581U 18062A   26132.13113073  .00000077  00000+0  00000+0 0  9993
2 43581  54.0834 183.5303 0004814 287.8378  72.1926  1.86229005 52962
BEIDOU-3 M6             
1 43582U 18062B   26129.30962619  .00000044  00000+0  00000+0 0  9991
2 43582  54.0831 183.6153 0004808  18.9796 341.1148  1.86227992 52917
BEIDOU-3 M12            
1 43602U 18067A   26129.24802271  .00000046  00000+0  00000+0 0  9991
2 43602  54.1783 182.3610 0007840  32.7480 327.3771  1.86227965 52394
BEIDOU-3 M11            
1 43603U 18067B   26132.06777900  .00000079  00000+0  00000+0 0  9992
2 43603  54.1757 182.2292 0004423  17.5437 342.5545  1.86227440 52473
BEIDOU-3 M13            
1 43622U 18072A   26132.02281462 -.00000027  00000+0  00000+0 0  9992
2 43622  56.5943  63.8530 0008368 321.3258  38.6007  1.86231523 51983
